0 BREEZE-M DEB
1 38634U 08011CH  13268.09865142  .00001003  00000-0  30824-1 0   712
2 38634 048.6393 204.6833 6476521 235.9452 316.3345 02.96630000 26612
0 BREEZE-M DEB
1 38634U 08011CH  13275.15390071  .00000149  00000-0  31421-2 0   727
2 38634 048.6299 202.3390 6478269 238.0175 290.5646 02.96652120 26824
